[
  {
    "placeName": "london",
    "imgUrl": "https://images.unsplash.com/photo-1505761671935-60b3a7427bad?auto=format&fit=crop&w=1600&q=80"
  },
  {
    "placeName": "london",
    "imgUrl": "https://images.unsplash.com/photo-1528909514045-2fa4ac7a08ba?auto=format&fit=crop&w=1600&q=80"
  },
  {
    "placeName": "london",
    "imgUrl": "https://images.unsplash.com/photo-1488747279002-c8523379faaa?auto=format&fit=crop&w=1600&q=80"
  },

  {
    "placeName": "paris",
    "imgUrl": "https://images.unsplash.com/photo-1502602898657-3e91760cbb34?auto=format&fit=crop&w=1600&q=80"
  },
  {
    "placeName": "paris",
    "imgUrl": "https://images.unsplash.com/photo-1499856871958-5b9627545d1a?auto=format&fit=crop&w=1600&q=80"
  },
  {
    "placeName": "paris",
    "imgUrl": "https://images.unsplash.com/photo-1508057198894-247b23fe5ade?auto=format&fit=crop&w=1600&q=80"
  },

  {
    "placeName": "saintTropez",
    "imgUrl": "https://images.unsplash.com/photo-1565619624098-cf4168a5f96b?auto=format&fit=crop&w=1600&q=80"
  },
  {
    "placeName": "saintTropez",
    "imgUrl": "https://images.unsplash.com/photo-1500375592092-40eb2168fd21?auto=format&fit=crop&w=1600&q=80"
  },
  {
    "placeName": "saintTropez",
    "imgUrl": "https://images.unsplash.com/photo-1593693397690-362cb9666fc2?auto=format&fit=crop&w=1600&q=80"
  }
]
